[{"OBJECT_NAME":"TIANMU-1 19","OBJECT_ID":"2023-208A","EPOCH":"2026-03-09T22:13:36.801696","MEAN_MOTION":15.2984143,"ECCENTRICITY":0.00039292,"INCLINATION":97.4383,"RA_OF_ASC_NODE":184.9132,"ARG_OF_PERICENTER":316.2611,"MEAN_ANOMALY":43.8317,"EPHEMERIS_TYPE":0,"CLASSIFICATION_TYPE":"U","NORAD_CAT_ID":58660,"ELEMENT_SET_NO":999,"REV_AT_EPOCH":12214,"BSTAR":0.00040995676,"MEAN_MOTION_DOT":0.00011779,"MEAN_MOTION_DDOT":0},{"OBJECT_NAME":"STARLINK-31233","OBJECT_ID":"2024-017A","EPOCH":"2026-03-09T16:01:48.977472","MEAN_MOTION":15.30198537,"ECCENTRICITY":9.345e-5,"INCLINATION":53.1592,"RA_OF_ASC_NODE":204.371,"ARG_OF_PERICENTER":85.6083,"MEAN_ANOMALY":274.5025,"EPHEMERIS_TYPE":0,"CLASSIFICATION_TYPE":"U","NORAD_CAT_ID":58826,"ELEMENT_SET_NO":999,"REV_AT_EPOCH":12017,"BSTAR":-4.1155009e-5,"MEAN_MOTION_DOT":-1.578e-5,"MEAN_MOTION_DDOT":0}]
